start=new Date('2022-05-08T00:00:00.000Z').valueOf();
sats=[{"INCLINATION":"53.0564","RA_OF_ASC_NODE":"295.0759","DECAY_DATE":null,"OBJECT_NAME":"STARLINK-2727","TLE_LINE2":"2 48652  53.0564 295.0759 0000891  47.4403 312.6661 15.06413172 53246","MEAN_ELEMENT_THEORY":"SGP4","MEAN_MOTION_DDOT":"0.0000000000000","SITE":"AFETR","MEAN_MOTION":"15.06413172","LAUNCH_DATE":"2021-05-26","APOAPSIS":"547.790","PERIAPSIS":"546.556","REF_FRAME":"TEME","CLASSIFICATION_TYPE":"U","GP_ID":"202931832","NORAD_CAT_ID":"48652","ELEMENT_SET_NO":"999","EPHEMERIS_TYPE":"0","BSTAR":"-0.00015210000000","TLE_LINE1":"1 48652U 21044Q   22127.77313204 -.00002547  00000-0 -15210-3 0  9999","SEMIMAJOR_AXIS":"6925.308","REV_AT_EPOCH":"5324","RCS_SIZE":"LARGE","ARG_OF_PERICENTER":"47.4403","OBJECT_TYPE":"PAYLOAD","PERIOD":"95.591","TIME_SYSTEM":"UTC","EPOCH":"2022-05-07T18:33:18.608256","CENTER_NAME":"EARTH","OBJECT_ID":"2021-044Q","FILE":"3434113","MEAN_MOTION_DOT":"-0.00002547","COUNTRY_CODE":"US","MEAN_ANOMALY":"312.6661","ECCENTRICITY":"0.00008910"},{"TLE_LINE1":"1 48653U 21044R   22127.76945757  .00001317  00000-0  10732-3 0  9999","SEMIMAJOR_AXIS":"6925.371","EPHEMERIS_TYPE":"0","BSTAR":"0.00010732000000","OBJECT_TYPE":"PAYLOAD","ARG_OF_PERICENTER":"70.1909","REV_AT_EPOCH":"5324","RCS_SIZE":"LARGE","TIME_SYSTEM":"UTC","EPOCH":"2022-05-07T18:28:01.134048","PERIOD":"95.593","COUNTRY_CODE":"US","MEAN_ANOMALY":"289.9244","ECCENTRICITY":"0.00015270","MEAN_MOTION_DOT":"0.00001317","CENTER_NAME":"EARTH","OBJECT_ID":"2021-044R","FILE":"3434457","RA_OF_ASC_NODE":"295.0871","INCLINATION":"53.0562","SITE":"AFETR","TLE_LINE2":"2 48653  53.0562 295.0871 0001527  70.1909 289.9244 15.06392574 53246","MEAN_MOTION_DDOT":"0.0000000000000","MEAN_ELEMENT_THEORY":"SGP4","OBJECT_NAME":"STARLINK-2720","DECAY_DATE":null,"PERIAPSIS":"546.179","APOAPSIS":"548.294","MEAN_MOTION":"15.06392574","LAUNCH_DATE":"2021-05-26","NORAD_CAT_ID":"48653","ELEMENT_SET_NO":"999","GP_ID":"202940231","CLASSIFICATION_TYPE":"U","REF_FRAME":"TEME"},{"INCLINATION":"53.0554","RA_OF_ASC_NODE":"295.1038","SITE":"AFETR","OBJECT_NAME":"STARLINK-2651","DECAY_DATE":null,"TLE_LINE2":"2 48654  53.0554 295.1038 0001113  88.0457 272.0659 15.06388647 53307","MEAN_MOTION_DDOT":"0.0000000000000","MEAN_ELEMENT_THEORY":"SGP4","PERIAPSIS":"546.478","MEAN_MOTION":"15.06388647","LAUNCH_DATE":"2021-05-26","APOAPSIS":"548.019","NORAD_CAT_ID":"48654","ELEMENT_SET_NO":"999","CLASSIFICATION_TYPE":"U","REF_FRAME":"TEME","GP_ID":"202931866","EPHEMERIS_TYPE":"0","BSTAR":"0.00003450500000","TLE_LINE1":"1 48654U 21044S   22127.76577688  .00000233  00000-0  34505-4 0  9995","SEMIMAJOR_AXIS":"6925.383","ARG_OF_PERICENTER":"88.0457","OBJECT_TYPE":"PAYLOAD","REV_AT_EPOCH":"5330","RCS_SIZE":"LARGE","EPOCH":"2022-05-07T18:22:43.122432","TIME_SYSTEM":"UTC","PERIOD":"95.593","MEAN_MOTION_DOT":"0.00000233","COUNTRY_CODE":"US","MEAN_ANOMALY":"272.0659","ECCENTRICITY":"0.00011130","CENTER_NAME":"EARTH","FILE":"3434102","OBJECT_ID":"2021-044S"},{"INCLINATION":"53.0551","RA_OF_ASC_NODE":"295.1294","SITE":"AFETR","OBJECT_NAME":"STARLINK-2657","DECAY_DATE":null,"TLE_LINE2":"2 48655  53.0551 295.1294 0001429  78.9358 281.1792 15.06390630 53244","MEAN_ELEMENT_THEORY":"SGP4","MEAN_MOTION_DDOT":"0.0000000000000","PERIAPSIS":"546.253","MEAN_MOTION":"15.06390630","LAUNCH_DATE":"2021-05-26","APOAPSIS":"548.232","NORAD_CAT_ID":"48655","ELEMENT_SET_NO":"999","REF_FRAME":"TEME","CLASSIFICATION_TYPE":"U","GP_ID":"202931369","EPHEMERIS_TYPE":"0","BSTAR":"0.00004543200000","TLE_LINE1":"1 48655U 21044T   22127.76208733  .00000395  00000-0  45432-4 0  9998","SEMIMAJOR_AXIS":"6925.377","ARG_OF_PERICENTER":"78.9358","OBJECT_TYPE":"PAYLOAD","REV_AT_EPOCH":"5324","RCS_SIZE":"LARGE","TIME_SYSTEM":"UTC","EPOCH":"2022-05-07T18:17:24.345312","PERIOD":"95.593","MEAN_MOTION_DOT":"0.00000395","COUNTRY_CODE":"US","MEAN_ANOMALY":"281.1792","ECCENTRICITY":"0.00014290","CENTER_NAME":"EARTH","OBJECT_ID":"2021-044T","FILE":"3434102"},{"SITE":"AFETR","OBJECT_NAME":"STARLINK-2701","DECAY_DATE":null,"TLE_LINE2":"2 48656  53.0568 296.3294 0001342  78.5404 281.5735 15.06395291 52369","MEAN_MOTION_DDOT":"0.0000000000000","MEAN_ELEMENT_THEORY":"SGP4","INCLINATION":"53.0568","RA_OF_ASC_NODE":"296.3294","NORAD_CAT_ID":"48656","ELEMENT_SET_NO":"999","CLASSIFICATION_TYPE":"U","REF_FRAME":"TEME","GP_ID":"202925974","PERIAPSIS":"546.299","MEAN_MOTION":"15.06395291","LAUNCH_DATE":"2021-05-26","APOAPSIS":"548.157","ARG_OF_PERICENTER":"78.5404","OBJECT_TYPE":"PAYLOAD","REV_AT_EPOCH":"5236","RCS_SIZE":"LARGE","EPHEMERIS_TYPE":"0","BSTAR":"0.00002855000000","TLE_LINE1":"1 48656U 21044U   22127.49300915  .00000144  00000-0  28550-4 0  9998","SEMIMAJOR_AXIS":"6925.363","MEAN_MOTION_DOT":"0.00000144","COUNTRY_CODE":"US","MEAN_ANOMALY":"281.5735","ECCENTRICITY":"0.00013420","CENTER_NAME":"EARTH","OBJECT_ID":"2021-044U","FILE":"3433971","TIME_SYSTEM":"UTC","EPOCH":"2022-05-07T11:49:55.990560","PERIOD":"95.592"},{"BSTAR":"0.00005131700000","EPHEMERIS_TYPE":"0","SEMIMAJOR_AXIS":"6925.373","TLE_LINE1":"1 48657U 21044V   22127.75471760  .00000483  00000-0  51317-4 0  9998","RCS_SIZE":"LARGE","REV_AT_EPOCH":"5330","ARG_OF_PERICENTER":"69.8724","OBJECT_TYPE":"PAYLOAD","PERIOD":"95.593","TIME_SYSTEM":"UTC","EPOCH":"2022-05-07T18:06:47.600640","FILE":"3434125","OBJECT_ID":"2021-044V","CENTER_NAME":"EARTH","MEAN_MOTION_DOT":"0.00000483","ECCENTRICITY":"0.00014650","MEAN_ANOMALY":"290.2422","COUNTRY_CODE":"US","INCLINATION":"53.0545","RA_OF_ASC_NODE":"295.1540","OBJECT_NAME":"STARLINK-2734","DECAY_DATE":null,"MEAN_ELEMENT_THEORY":"SGP4","MEAN_MOTION_DDOT":"0.0000000000000","TLE_LINE2":"2 48657  53.0545 295.1540 0001465  69.8724 290.2422 15.06391889 53304","SITE":"AFETR","LAUNCH_DATE":"2021-05-26","MEAN_MOTION":"15.06391889","APOAPSIS":"548.253","PERIAPSIS":"546.224","REF_FRAME":"TEME","CLASSIFICATION_TYPE":"U","GP_ID":"202932041","ELEMENT_SET_NO":"999","NORAD_CAT_ID":"48657"},{"RA_OF_ASC_NODE":"295.1743","INCLINATION":"53.0547","SITE":"AFETR","TLE_LINE2":"2 48658  53.0547 295.1743 0001527  59.5176 300.5964 15.06400318 53302","MEAN_MOTION_DDOT":"0.0000000000000","MEAN_ELEMENT_THEORY":"SGP4","DECAY_DATE":null,"OBJECT_NAME":"STARLINK-2647","PERIAPSIS":"546.155","APOAPSIS":"548.270","MEAN_MOTION":"15.06400318","LAUNCH_DATE":"2021-05-26","NORAD_CAT_ID":"48658","ELEMENT_SET_NO":"999","GP_ID":"202932061","REF_FRAME":"TEME","CLASSIFICATION_TYPE":"U","TLE_LINE1":"1 48658U 21044W   22127.75102648  .00000377  00000-0  44198-4 0  9996","SEMIMAJOR_AXIS":"6925.348","EPHEMERIS_TYPE":"0","BSTAR":"0.00004419800000","OBJECT_TYPE":"PAYLOAD","ARG_OF_PERICENTER":"59.5176","REV_AT_EPOCH":"5330","RCS_SIZE":"LARGE","TIME_SYSTEM":"UTC","EPOCH":"2022-05-07T18:01:28.687872","PERIOD":"95.592","COUNTRY_CODE":"US","MEAN_ANOMALY":"300.5964","ECCENTRICITY":"0.00015270","MEAN_MOTION_DOT":"0.00000377","CENTER_NAME":"EARTH","OBJECT_ID":"2021-044W","FILE":"3434126"},{"COUNTRY_CODE":"US","ECCENTRICITY":"0.00014380","MEAN_ANOMALY":"275.9835","MEAN_MOTION_DOT":"-0.00001098","CENTER_NAME":"EARTH","OBJECT_ID":"2021-044X","FILE":"3434129","EPOCH":"2022-05-07T17:56:10.940640","TIME_SYSTEM":"UTC","PERIOD":"95.593","OBJECT_TYPE":"PAYLOAD","ARG_OF_PERICENTER":"84.1318","REV_AT_EPOCH":"5324","RCS_SIZE":"LARGE","TLE_LINE1":"1 48659U 21044X   22127.74734885 -.00001098  00000-0 -54819-4 0  9994","SEMIMAJOR_AXIS":"6925.391","EPHEMERIS_TYPE":"0","BSTAR":"-0.00005481900000","NORAD_CAT_ID":"48659","ELEMENT_SET_NO":"999","GP_ID":"202932105","CLASSIFICATION_TYPE":"U","REF_FRAME":"TEME","PERIAPSIS":"546.260","APOAPSIS":"548.252","MEAN_MOTION":"15.06386171","LAUNCH_DATE":"2021-05-26","SITE":"AFETR","TLE_LINE2":"2 48659  53.0554 295.1879 0001438  84.1318 275.9835 15.06386171 53249","MEAN_ELEMENT_THEORY":"SGP4","MEAN_MOTION_DDOT":"0.0000000000000","OBJECT_NAME":"STARLINK-2717","DECAY_DATE":null,"RA_OF_ASC_NODE":"295.1879","INCLINATION":"53.0554"},{"OBJECT_TYPE":"PAYLOAD","ARG_OF_PERICENTER":"78.4154","RCS_SIZE":"LARGE","REV_AT_EPOCH":"5232","SEMIMAJOR_AXIS":"6925.360","TLE_LINE1":"1 48660U 21044Y   22127.21287652 -.00000631  00000-0 -23492-4 0  9998","BSTAR":"-0.00002349200000","EPHEMERIS_TYPE":"0","MEAN_ANOMALY":"281.6999","ECCENTRICITY":"0.00014620","COUNTRY_CODE":"US","MEAN_MOTION_DOT":"-0.00000631","OBJECT_ID":"2021-044Y","FILE":"3433971","CENTER_NAME":"EARTH","TIME_SYSTEM":"UTC","EPOCH":"2022-05-07T05:06:32.531328","PERIOD":"95.592","SITE":"AFETR","MEAN_ELEMENT_THEORY":"SGP4","MEAN_MOTION_DDOT":"0.0000000000000","TLE_LINE2":"2 48660  53.0529 297.5915 0001462  78.4154 281.6999 15.06396292 52329","DECAY_DATE":null,"OBJECT_NAME":"STARLINK-2688","RA_OF_ASC_NODE":"297.5915","INCLINATION":"53.0529","ELEMENT_SET_NO":"999","NORAD_CAT_ID":"48660","GP_ID":"202926474","REF_FRAME":"TEME","CLASSIFICATION_TYPE":"U","PERIAPSIS":"546.212","APOAPSIS":"548.237","LAUNCH_DATE":"2021-05-26","MEAN_MOTION":"15.06396292"},{"PERIOD":"95.592","TIME_SYSTEM":"UTC","EPOCH":"2022-05-07T19:27:44.244000","FILE":"3434131","OBJECT_ID":"2021-044Z","CENTER_NAME":"EARTH","MEAN_MOTION_DOT":"0.00001061","ECCENTRICITY":"0.00017970","MEAN_ANOMALY":"302.8702","COUNTRY_CODE":"US","BSTAR":"0.00009010900000","EPHEMERIS_TYPE":"0","SEMIMAJOR_AXIS":"6925.366","TLE_LINE1":"1 48661U 21044Z   22127.81092875  .00001061  00000-0  90109-4 0  9991","RCS_SIZE":"LARGE","REV_AT_EPOCH":"5345","ARG_OF_PERICENTER":"57.2460","OBJECT_TYPE":"PAYLOAD","LAUNCH_DATE":"2021-05-26","MEAN_MOTION":"15.06394470","APOAPSIS":"548.475","PERIAPSIS":"545.986","REF_FRAME":"TEME","CLASSIFICATION_TYPE":"U","GP_ID":"202932138","ELEMENT_SET_NO":"999","NORAD_CAT_ID":"48661","INCLINATION":"53.0545","RA_OF_ASC_NODE":"284.9064","OBJECT_NAME":"STARLINK-2708","DECAY_DATE":null,"MEAN_MOTION_DDOT":"0.0000000000000","MEAN_ELEMENT_THEORY":"SGP4","TLE_LINE2":"2 48661  53.0545 284.9064 0001797  57.2460 302.8702 15.06394470 53458","SITE":"AFETR"}];
